[Satellite]
VERSION=1.1
NAME=CLUSTER II-FM8 (TANGO)
NICKNAME=CLUSTER II-FM8 (TANGO)
TLE1=1 26464U 00045B   22343.00541392  .00000660  00000+0  00000+0 0  9999
TLE2=2 26464 135.0174 349.5945 6047958 202.4512   0.0672  0.44219900 62269
STATUS=0
